WORLDVIEW-1 (WV-1)      
1 32060U 07041A   26186.27833037  .00009785  00000+0  40096-3 0  9999
2 32060  97.3895 305.7660 0000927 279.1290  80.9843 15.24479765 45639
WORLDVIEW-2 (WV-2)      
1 35946U 09055A   26186.18655842  .00000191  00000+0  77644-4 0  9990
2 35946  98.4760 259.3905 0004832 154.8241 205.3182 14.37905187878232
WORLDVIEW-3 (WV-3)      
1 40115U 14048A   26186.22512251  .00001187  00000+0  14529-3 0  9991
2 40115  97.8560 260.8087 0000488 167.4934 192.6293 14.85054221644584
